CCSDS_OMM_VERS = 2.0
CREATION_DATE  = 
ORIGINATOR     = 

OBJECT_NAME    = STARLINK-36222
OBJECT_ID      = 2025-298Y
CENTER_NAME    = EARTH
REF_FRAME      = TEME
TIME_SYSTEM    = UTC
MEAN_ELEMENT_THEORY = SGP/SGP4

EPOCH          = 2025-12-24T06:00:02.000160
MEAN_MOTION    = 15.84428637
ECCENTRICITY   = .00039293
INCLINATION    = 69.9955
RA_OF_ASC_NODE = 217.2214
ARG_OF_PERICENTER = 276.0816
MEAN_ANOMALY   = 126.8072

EPHEMERIS_TYPE = 0
CLASSIFICATION_TYPE = U
NORAD_CAT_ID   = 67097
ELEMENT_SET_NO = 999
REV_AT_EPOCH   = 276
BSTAR          = -.88278619E-2
MEAN_MOTION_DOT = -.1748354E-1
MEAN_MOTION_DDOT = 0

CCSDS_OMM_VERS = 2.0
CREATION_DATE  = 
ORIGINATOR     = 

OBJECT_NAME    = STARLINK-36205
OBJECT_ID      = 2025-298Z
CENTER_NAME    = EARTH
REF_FRAME      = TEME
TIME_SYSTEM    = UTC
MEAN_ELEMENT_THEORY = SGP/SGP4

EPOCH          = 2025-12-24T06:00:02.000160
MEAN_MOTION    = 15.84418907
ECCENTRICITY   = .00038605
INCLINATION    = 69.9954
RA_OF_ASC_NODE = 217.2189
ARG_OF_PERICENTER = 276.0750
MEAN_ANOMALY   = 129.0006

EPHEMERIS_TYPE = 0
CLASSIFICATION_TYPE = U
NORAD_CAT_ID   = 67098
ELEMENT_SET_NO = 999
REV_AT_EPOCH   = 282
BSTAR          = -.88209069E-2
MEAN_MOTION_DOT = -.1746372E-1
MEAN_MOTION_DDOT = 0

CCSDS_OMM_VERS = 2.0
CREATION_DATE  = 
ORIGINATOR     = 

OBJECT_NAME    = STARLINK-36193
OBJECT_ID      = 2025-298AA
CENTER_NAME    = EARTH
REF_FRAME      = TEME
TIME_SYSTEM    = UTC
MEAN_ELEMENT_THEORY = SGP/SGP4

EPOCH          = 2025-12-24T06:00:02.000160
MEAN_MOTION    = 15.84207344
ECCENTRICITY   = .00037842
INCLINATION    = 69.9954
RA_OF_ASC_NODE = 217.2149
ARG_OF_PERICENTER = 273.9987
MEAN_ANOMALY   = 134.5327

EPHEMERIS_TYPE = 0
CLASSIFICATION_TYPE = U
NORAD_CAT_ID   = 67099
ELEMENT_SET_NO = 999
REV_AT_EPOCH   = 276
BSTAR          = -.12374543E-1
MEAN_MOTION_DOT = -.2423814E-1
MEAN_MOTION_DDOT = 0

CCSDS_OMM_VERS = 2.0
CREATION_DATE  = 
ORIGINATOR     = 

OBJECT_NAME    = STARLINK-36215
OBJECT_ID      = 2025-298AB
CENTER_NAME    = EARTH
REF_FRAME      = TEME
TIME_SYSTEM    = UTC
MEAN_ELEMENT_THEORY = SGP/SGP4

EPOCH          = 2025-12-24T06:00:02.000160
MEAN_MOTION    = 15.84429799
ECCENTRICITY   = .00039286
INCLINATION    = 69.9953
RA_OF_ASC_NODE = 217.2123
ARG_OF_PERICENTER = 274.7727
MEAN_ANOMALY   = 135.7321

EPHEMERIS_TYPE = 0
CLASSIFICATION_TYPE = U
NORAD_CAT_ID   = 67100
ELEMENT_SET_NO = 999
REV_AT_EPOCH   = 282
BSTAR          = -.88275443E-2
MEAN_MOTION_DOT = -.1748383E-1
MEAN_MOTION_DDOT = 0

CCSDS_OMM_VERS = 2.0
CREATION_DATE  = 
ORIGINATOR     = 

OBJECT_NAME    = STARLINK-36200
OBJECT_ID      = 2025-298AC
CENTER_NAME    = EARTH
REF_FRAME      = TEME
TIME_SYSTEM    = UTC
MEAN_ELEMENT_THEORY = SGP/SGP4

EPOCH          = 2025-12-24T06:00:02.000160
MEAN_MOTION    = 15.84424885
ECCENTRICITY   = .00038565
INCLINATION    = 69.9957
RA_OF_ASC_NODE = 217.2172
ARG_OF_PERICENTER = 272.2112
MEAN_ANOMALY   = 134.6127

EPHEMERIS_TYPE = 0
CLASSIFICATION_TYPE = U
NORAD_CAT_ID   = 67101
ELEMENT_SET_NO = 999
REV_AT_EPOCH   = 282
BSTAR          = -.88324755E-2
MEAN_MOTION_DOT = -.1748772E-1
MEAN_MOTION_DDOT = 0

CCSDS_OMM_VERS = 2.0
CREATION_DATE  = 
ORIGINATOR     = 

OBJECT_NAME    = STARLINK-36255
OBJECT_ID      = 2025-299A
CENTER_NAME    = EARTH
REF_FRAME      = TEME
TIME_SYSTEM    = UTC
MEAN_ELEMENT_THEORY = SGP/SGP4

EPOCH          = 2025-12-24T06:00:02.000160
MEAN_MOTION    = 15.87673835
ECCENTRICITY   = .00016636
INCLINATION    = 42.9973
RA_OF_ASC_NODE = 246.1642
ARG_OF_PERICENTER = 266.2185
MEAN_ANOMALY   = 351.5555

EPHEMERIS_TYPE = 0
CLASSIFICATION_TYPE = U
NORAD_CAT_ID   = 67102
ELEMENT_SET_NO = 999
REV_AT_EPOCH   = 266
BSTAR          = -.73058393E-2
MEAN_MOTION_DOT = -.1749368E-1
MEAN_MOTION_DDOT = 0

CCSDS_OMM_VERS = 2.0
CREATION_DATE  = 
ORIGINATOR     = 

OBJECT_NAME    = STARLINK-36256
OBJECT_ID      = 2025-299B
CENTER_NAME    = EARTH
REF_FRAME      = TEME
TIME_SYSTEM    = UTC
MEAN_ELEMENT_THEORY = SGP/SGP4

EPOCH          = 2025-12-24T06:00:02.000160
MEAN_MOTION    = 15.87697711
ECCENTRICITY   = .00017077
INCLINATION    = 42.9973
RA_OF_ASC_NODE = 246.1612
ARG_OF_PERICENTER = 268.9403
MEAN_ANOMALY   = 350.0710

EPHEMERIS_TYPE = 0
CLASSIFICATION_TYPE = U
NORAD_CAT_ID   = 67103
ELEMENT_SET_NO = 999
REV_AT_EPOCH   = 266
BSTAR          = -.73243813E-2
MEAN_MOTION_DOT = -.1755046E-1
MEAN_MOTION_DDOT = 0

CCSDS_OMM_VERS = 2.0
CREATION_DATE  = 
ORIGINATOR     = 

OBJECT_NAME    = STARLINK-36258
OBJECT_ID      = 2025-299C
CENTER_NAME    = EARTH
REF_FRAME      = TEME
TIME_SYSTEM    = UTC
MEAN_ELEMENT_THEORY = SGP/SGP4

EPOCH          = 2025-12-24T06:00:02.000160
MEAN_MOTION    = 15.87710681
ECCENTRICITY   = .00017448
INCLINATION    = 42.9973
RA_OF_ASC_NODE = 246.1574
ARG_OF_PERICENTER = 268.3151
MEAN_ANOMALY   = 352.1280

EPHEMERIS_TYPE = 0
CLASSIFICATION_TYPE = U
NORAD_CAT_ID   = 67104
ELEMENT_SET_NO = 999
REV_AT_EPOCH   = 266
BSTAR          = -.7328506E-2
MEAN_MOTION_DOT = -.1756922E-1
MEAN_MOTION_DDOT = 0

CCSDS_OMM_VERS = 2.0
CREATION_DATE  = 
ORIGINATOR     = 

OBJECT_NAME    = STARLINK-36261
OBJECT_ID      = 2025-299D
CENTER_NAME    = EARTH
REF_FRAME      = TEME
TIME_SYSTEM    = UTC
MEAN_ELEMENT_THEORY = SGP/SGP4

EPOCH          = 2025-12-24T06:00:02.000160
MEAN_MOTION    = 15.87726608
ECCENTRICITY   = .0001753
INCLINATION    = 42.9972
RA_OF_ASC_NODE = 246.1545
ARG_OF_PERICENTER = 265.2809
MEAN_ANOMALY   = 356.3231

EPHEMERIS_TYPE = 0
CLASSIFICATION_TYPE = U
NORAD_CAT_ID   = 67105
ELEMENT_SET_NO = 999
REV_AT_EPOCH   = 266
BSTAR          = -.72634981E-2
MEAN_MOTION_DOT = -.174473E-1
MEAN_MOTION_DDOT = 0

CCSDS_OMM_VERS = 2.0
CREATION_DATE  = 
ORIGINATOR     = 

OBJECT_NAME    = STARLINK-36259
OBJECT_ID      = 2025-299E
CENTER_NAME    = EARTH
REF_FRAME      = TEME
TIME_SYSTEM    = UTC
MEAN_ELEMENT_THEORY = SGP/SGP4

EPOCH          = 2025-12-24T06:00:02.000160
MEAN_MOTION    = 15.87744796
ECCENTRICITY   = .00017561
INCLINATION    = 42.9974
RA_OF_ASC_NODE = 246.1466
ARG_OF_PERICENTER = 268.3770
MEAN_ANOMALY   = 356.4434

EPHEMERIS_TYPE = 0
CLASSIFICATION_TYPE = U
NORAD_CAT_ID   = 67106
ELEMENT_SET_NO = 999
REV_AT_EPOCH   = 266
BSTAR          = -.72611535E-2
MEAN_MOTION_DOT = -.1745625E-1
MEAN_MOTION_DDOT = 0

CCSDS_OMM_VERS = 2.0
CREATION_DATE  = 
ORIGINATOR     = 

OBJECT_NAME    = STARLINK-36196
OBJECT_ID      = 2025-299F
CENTER_NAME    = EARTH
REF_FRAME      = TEME
TIME_SYSTEM    = UTC
MEAN_ELEMENT_THEORY = SGP/SGP4

EPOCH          = 2025-12-24T06:00:02.000160
MEAN_MOTION    = 15.87740391
ECCENTRICITY   = .00017549
INCLINATION    = 42.9974
RA_OF_ASC_NODE = 246.1509
ARG_OF_PERICENTER = 265.6301
MEAN_ANOMALY   = 357.4907

EPHEMERIS_TYPE = 0
CLASSIFICATION_TYPE = U
NORAD_CAT_ID   = 67107
ELEMENT_SET_NO = 999
REV_AT_EPOCH   = 266
BSTAR          = -.72798655E-2
MEAN_MOTION_DOT = -.1749158E-1
MEAN_MOTION_DDOT = 0

CCSDS_OMM_VERS = 2.0
CREATION_DATE  = 
ORIGINATOR     = 

OBJECT_NAME    = STARLINK-36208
OBJECT_ID      = 2025-299G
CENTER_NAME    = EARTH
REF_FRAME      = TEME
TIME_SYSTEM    = UTC
MEAN_ELEMENT_THEORY = SGP/SGP4

EPOCH          = 2025-12-24T06:00:02.000160
MEAN_MOTION    = 15.87757151
ECCENTRICITY   = .00018469
INCLINATION    = 42.9974
RA_OF_ASC_NODE = 246.1422
ARG_OF_PERICENTER = 268.5054
MEAN_ANOMALY   = 357.9992

EPHEMERIS_TYPE = 0
CLASSIFICATION_TYPE = U
NORAD_CAT_ID   = 67108
ELEMENT_SET_NO = 999
REV_AT_EPOCH   = 266
BSTAR          = -.72897685E-2
MEAN_MOTION_DOT = -.1752578E-1
MEAN_MOTION_DDOT = 0

