STARLINK-36222          
1 67097U 25298Y   25358.25002315 -.01748354  00000+0 -88279-2 0  9995
2 67097  69.9955 217.2214 0003929 276.0816 126.8072 15.84428637  2765
STARLINK-36205          
1 67098U 25298Z   25358.25002315 -.01746372  00000+0 -88209-2 0  9997
2 67098  69.9954 217.2189 0003860 276.0750 129.0006 15.84418907  2825
STARLINK-36193          
1 67099U 25298AA  25358.25002315 -.02423814  00000+0 -12375-1 0  9992
2 67099  69.9954 217.2149 0003784 273.9987 134.5327 15.84207344  2766
STARLINK-36215          
1 67100U 25298AB  25358.25002315 -.01748383  00000+0 -88275-2 0  9998
2 67100  69.9953 217.2123 0003928 274.7727 135.7321 15.84429799  2825
STARLINK-36200          
1 67101U 25298AC  25358.25002315 -.01748772  00000+0 -88325-2 0  9997
2 67101  69.9957 217.2172 0003856 272.2112 134.6127 15.84424885  2828
STARLINK-36255          
1 67102U 25299A   25358.25002315 -.01749368  00000+0 -73058-2 0  9998
2 67102  42.9973 246.1642 0001663 266.2185 351.5555 15.87673835  2669
STARLINK-36256          
1 67103U 25299B   25358.25002315 -.01755046  00000+0 -73244-2 0  9996
2 67103  42.9973 246.1612 0001707 268.9403 350.0710 15.87697711  2664
STARLINK-36258          
1 67104U 25299C   25358.25002315 -.01756922  00000+0 -73285-2 0  9996
2 67104  42.9973 246.1574 0001744 268.3151 352.1280 15.87710681  2664
STARLINK-36261          
1 67105U 25299D   25358.25002315 -.01744730  00000+0 -72635-2 0  9999
2 67105  42.9972 246.1545 0001753 265.2809 356.3231 15.87726608  2666
STARLINK-36259          
1 67106U 25299E   25358.25002315 -.01745625  00000+0 -72612-2 0  9999
2 67106  42.9974 246.1466 0001756 268.3770 356.4434 15.87744796  2669
STARLINK-36196          
1 67107U 25299F   25358.25002315 -.01749158  00000+0 -72799-2 0  9991
2 67107  42.9974 246.1509 0001754 265.6301 357.4907 15.87740391  2669
STARLINK-36208          
1 67108U 25299G   25358.25002315 -.01752578  00000+0 -72898-2 0  9992
2 67108  42.9974 246.1422 0001846 268.5054 357.9992 15.87757151  2664
